ONEWEB-0018             
1 45434U 20020L   24337.67367551  .00000213  00000+0  56464-3 0  9996
2 45434  87.8881 132.9464 0001392  91.3916 268.7371 13.11413373229032
ONEWEB-0083             
1 45435U 20020M   24337.73980638  .00000521  00000+0  14346-2 0  9995
2 45435  87.8885 132.9159 0001457  96.7080 263.4213 13.11415121229086
ONEWEB-0095             
1 45436U 20020N   24337.88407580  .00000560  00000+0  15427-2 0  9996
2 45436  87.8880 132.9179 0001882 120.0409 240.0906 13.11420162229106
ONEWEB-0092             
1 45437U 20020P   24337.85601963 -.00000433  00000+0 -12549-2 0  9998
2 45437  87.8882 132.9099 0001677 102.3274 257.8041 13.11497920229219
ONEWEB-0085             
1 45438U 20020Q   24337.73302614  .00000545  00000+0  15005-2 0  9999
2 45438  87.8891 132.9420 0001436  91.0921 269.0371 13.11416002229082
ONEWEB-0096             
1 45439U 20020R   24337.89409527  .00000535  00000+0  14723-2 0  9993
2 45439  87.8886 132.8783 0001512  85.2883 274.8418 13.11415105229095
ONEWEB-0037             
1 45440U 20020S   24337.87544758  .00000303  00000+0  81940-3 0  9998
2 45440  87.8888 132.8561 0001515  96.0012 264.1288 13.11419236229120
ONEWEB-0042             
1 45441U 20020T   24337.88377749  .00000508  00000+0  13984-2 0  9993
2 45441  87.8888 132.8928 0001544  92.9876 267.1429 13.11419066229090
